GPS BIIA-23 (PRN 18)    
1 22877U 93068A   19196.25261350 -.00000073  00000-0  00000+0 0  9992
2 22877  54.7050  67.4090 0153483  80.5733  93.8447  2.00562126188438
GPS BIIR-2  (PRN 13)    
1 24876U 97035A   19195.90563171  .00000061  00000-0  00000+0 0  9994
2 24876  55.4613 197.3826 0033325  70.2540 290.1250  2.00564348161024
GPS BIIR-3  (PRN 11)    
1 25933U 99055A   19196.23789490 -.00000085  00000-0  00000+0 0  9991
2 25933  52.1407  44.6161 0165239 109.7208  56.2296  2.00558435144852
GPS BIIR-4  (PRN 20)    
1 26360U 00025A   19195.19703772 -.00000060  00000-0  00000+0 0  9991
2 26360  53.3494 123.3129 0044239 138.9834  42.4633  2.00560312140529
GPS BIIR-5  (PRN 28)    
1 26407U 00040A   19195.98786826 -.00000087  00000-0  00000+0 0  9997
2 26407  56.2396 315.5001 0192424 276.0059  89.3480  2.00560462139211
GPS BIIR-6  (PRN 14)    
1 26605U 00071A   19195.60850064  .00000061  00000-0  00000+0 0  9997
2 26605  55.0361 194.8308 0109909 249.6694 113.7021  2.00557771136809
GPS BIIR-8  (PRN 16)    
1 27663U 03005A   19196.29048941 -.00000085  00000-0  00000+0 0  9998
2 27663  56.2990 315.2627 0106308  32.4167 314.5812  2.00572136120580
GPS BIIR-9  (PRN 21)    
1 27704U 03010A   19193.12878483 -.00000087  00000-0  00000+0 0  9993
2 27704  54.3783  66.9983 0247383 278.0887 267.5081  2.00559994119317
GPS BIIR-10 (PRN 22)    
1 28129U 03058A   19196.10113465 -.00000056  00000-0  00000+0 0  9996
2 28129  53.1616 126.0548 0073381 284.2571  74.9033  2.00553179114074
GPS BIIR-11 (PRN 19)    
1 28190U 04009A   19196.09906692 -.00000089  00000-0  00000+0 0  9997
2 28190  56.2725  16.0429 0093728  82.9718 278.3097  2.00567951112257
GPS BIIR-12 (PRN 23)    
1 28361U 04023A   19196.40427279  .00000041  00000-0  00000+0 0  9994
2 28361  54.0525 189.1380 0135220 232.2543 265.0967  2.00577237110344
GPS BIIR-13 (PRN 02)    
1 28474U 04045A   19196.10543762 -.00000074  00000-0  00000+0 0  9993
2 28474  54.7369  66.6374 0191335 261.0698  17.8009  2.00555210107707
GPS BIIRM-1 (PRN 17)    
1 28874U 05038A   19196.35704234 -.00000091  00000-0  00000+0 0  9999
2 28874  56.3942  13.3887 0130885 262.0114 303.0026  2.00553147101105
GPS BIIRM-2 (PRN 31)    
1 29486U 06042A   19195.67391088  .00000037  00000-0  00000+0 0  9997
2 29486  54.9862 251.9398 0092210 359.0947 358.5362  2.00566402 93800
GPS BIIRM-3 (PRN 12)    
1 29601U 06052A   19195.62452989 -.00000087  00000-0  00000+0 0  9996
2 29601  56.2803 314.2055 0073615  62.3183 298.4286  2.00571151 92720
GPS BIIRM-4 (PRN 15)    
1 32260U 07047A   19194.94037345  .00000052  00000-0  00000+0 0  9996
2 32260  53.1757 184.8621 0113018  44.2360 316.6597  2.00557563 86088
GPS BIIRM-5 (PRN 29)    
1 32384U 07062A   19195.99804774 -.00000089  00000-0  00000+0 0  9995
2 32384  56.4792  14.0451 0009812 108.7398  69.6386  2.00558091 84848
GPS BIIRM-6 (PRN 07)    
1 32711U 08012A   19195.84522171  .00000038  00000-0  00000+0 0  9990
2 32711  54.7266 251.1164 0131466 220.4642 138.6369  2.00555557 83020
GPS BIIRM-8 (PRN 05)    
1 35752U 09043A   19195.61657894 -.00000053  00000-0  00000+0 0  9997
2 35752  54.4408 128.7861 0056154  40.3763 180.2215  2.00557186 72604
GPS BIIF-1  (PRN 25)    
1 36585U 10022A   19195.91970990 -.00000081  00000-0  00000+0 0  9990
2 36585  55.5585 310.4741 0082240  50.8599 131.1543  2.00562149 66856
GPS BIIF-2  (PRN 01)    
1 37753U 11036A   19196.29148934 -.00000070  00000-0  00000+0 0  9999
2 37753  55.9344  70.6260 0088731  40.9884 137.7840  2.00566658 58548
GPS BIIF-3  (PRN 24)    
1 38833U 12053A   19196.03273383  .00000042  00000-0  00000+0 0  9996
2 38833  53.7627 247.2829 0082626  33.1859 327.4172  2.00559033 49606
GPS BIIF-4  (PRN 27)    
1 39166U 13023A   19194.89340384 -.00000089  00000-0  00000+0 0  9994
2 39166  56.0746  10.2113 0070529  27.7851 332.6120  2.00567199 45124
GPS BIIF-5  (PRN 30)    
1 39533U 14008A   19195.38787727  .00000033  00000-0  00000+0 0  9995
2 39533  53.8921 252.7081 0042051 194.9156 165.0438  2.00550573 39494
GPS BIIF-6  (PRN 06)    
1 39741U 14026A   19196.16894963 -.00000070  00000-0  00000+0 0  9996
2 39741  55.9137  70.1564 0016354 294.5457  65.3478  2.00570428 37791
GPS BIIF-7  (PRN 09)    
1 40105U 14045A   19196.26173851  .00000045  00000-0  00000+0 0  9991
2 40105  54.5790 189.4639 0009898 100.9225 259.1898  2.00567381 36244
GPS BIIF-8  (PRN 03)    
1 40294U 14068A   19196.13094593 -.00000050  00000-0  00000+0 0  9993
2 40294  55.1927 130.3418 0022098  32.1012 328.0017  2.00554475 34460
GPS BIIF-9  (PRN 26)    
1 40534U 15013A   19196.26911937 -.00000078  00000-0  00000+0 0  9995
2 40534  54.4847 308.7723 0037137   5.6391 354.4146  2.00567988 31539
GPS BIIF-10  (PRN 08)   
1 40730U 15033A   19195.93431388 -.00000094  00000-0  00000+0 0  9993
2 40730  55.5985   9.4979 0044469 345.4318  14.4582  2.00553000 29286
GPS BIIF-11  (PRN 10)   
1 41019U 15062A   19195.97952867 -.00000050  00000-0  00000+0 0  9992
2 41019  55.1934 130.1640 0047560 207.5009 152.2169  2.00564638 27104
GPS BIIF-12  (PRN 32)   
1 41328U 16007A   19196.07285107  .00000048  00000-0  00000+0 0  9999
2 41328  54.8219 189.8682 0033374 220.9821 138.7695  2.00571228 25165
